{
  "norad_id": 63066,
  "name": "STARLINK-33622",
  "history": [
    {
      "epoch": "2026-03-28T20:28:44.603328Z",
      "apogee_km": 484.35362654623896,
      "perigee_km": 481.6058865075847,
      "latitude_deg": 1.887775827647634e-05,
      "longitude_deg": -94.87310794323655,
      "height_km": 483.2032794207128,
      "semi_major_axis_km": 6861.116756526912,
      "eccentricity": 0.00020024,
      "inclination_deg": 43.0041,
      "raan_deg": 38.5805,
      "arg_perigee_deg": 251.0551,
      "mean_anomaly_deg": 109.0084,
      "mean_motion_rev_day": 15.27603157
    }
  ]
}